J94C00B 21.0   0.15 K14C9 242.94627  288.52186  310.67032   18.25679  0.1451603  0.79957423   1.1496444  0 MPO171900   150   3 1994-2010 0.51 M-v 3Eh MPCADO     0803          1994 CB            20100205
J94C01J 21.4   0.15 K14C9 106.02321   65.25748  172.07851    2.30657  0.3253465  0.54167353   1.4904279  0 MPO306930   166   3 1994-2014 0.37 M-v 3Eh MPCADO     8804          1994 CJ1           20140828
J94E00K 20.3   0.15 K14C9 234.39998   99.27205  333.05576    6.04025  0.6384313  0.31247094   2.1507815  1 MPO254715    99   3 1994-2013 0.46 M-v 3Eh MPCADO     8803          1994 EK            20130214
J94E00U 25.9   0.15 K14C9 320.13762  145.68104  351.55682    6.47157  0.2779478  0.60990717   1.3770833  7 MPO164143    16   1   12 days 0.94 M-v 3Eh MPCW       2803          1994 EU            19940322
J94E01S 28.5   0.15 K14C9 156.38669  280.30682  352.73245    1.06845  0.5898569  0.59517151   1.3997204    MPC 23345    13   1    1 days 1.4  M-N 08  Marsden    2803          1994 ES1           19940315
J94F00A 25.2   0.15 K14C9  44.07631  153.43615  355.62651   12.92567  0.4171177  0.43253463   1.7316314  7 MPO164143    15   1    4 days 0.77 M-v 3Eh MPCW       2804          1994 FA            19940320
J94G00K 24.2   0.15 K14C9 135.50185  112.19875   14.83313    5.74065  0.6112122  0.34923746   1.9970495  8 MPO164143    10   1    3 days 1.06 M-v 3Eh MPCW       2803          1994 GK            19940410
J94G00L 24.4   0.15 K14C9  26.73672  179.38500  196.81416    3.67304  0.5041208  1.74452680   0.6834147  9 MPO164143    10   1    3 days 0.88 M-v 3Eh MPCW       2802          1994 GL            19940410
J94G00V 27.4   0.15 K14C9 107.66904  153.95003   20.18264    0.45466  0.5202416  0.34747376   2.0038015  7 MPO164143    11   1    2 days 0.61 M-v 3Eh MPCW       2803          1994 GV            19940415
J94J00X 17.1   0.15 K14C9 174.45454  193.40628   52.49671   32.16358  0.5724573  0.21467143   2.7623999  1 MPO215055   100   3 1994-2008 0.59 M-v 38h MPCALB     1804          1994 JX            20080928
J94N00E 19.8   0.15 K14C9 355.21879  246.48634  104.68808   27.49082  0.6044155  0.33919297   2.0362831  3 MPC 36071    37   1   26 days 1.16 M-v 3Eh Williams   A803          1994 NE            19940708
J94N00K 20.0   0.15 K14C9 253.94760  128.69713  119.91122    5.68125  0.5391348  0.27379187   2.3488522  0 MPO251988   298   2 1994-2012 0.42 M-v 3Eh MPCW       0804          1994 NK            20120821
J94R00B 23.4   0.15 K14C9  69.45706   52.55936  339.48077   26.54876  0.6388562  0.25393751   2.4697414  7 MPO164143    21   1    2 days 0.66 M-v 3Eh MPCW       2803          1994 RB            19940903
J94R00C 19.3   0.15 K14C9 352.42882  286.46626  344.37224    4.75752  0.6030937  0.28894917   2.2659748  1 MPO264917    91   3 1994-2011 0.54 M-v 3Eh MPCADO     8803          1994 RC            20111023
J94T02A 20.3   0.15 K14C9 274.63290  119.31349  200.92457    7.01199  0.5256566  0.23106569   2.6301412  6 MPO 57659    28   1   18 days 0.52 M-v 38h MPCW       2804          1994 TA2           19941027
J94T02E 22.7   0.15 K14C9 358.47285  185.46197  198.61916    5.67413  0.4387749  0.29308605   2.2446017  7 MPO164144    15   1    2 days 0.20 M-v 38h MPCW       2804          1994 TE2           19941013
J94U00G 21.0   0.15 K14C9 350.39206  225.54410   13.69000    5.20569  0.2924249  0.71521849   1.2383504  2 MPO241836    55   4 1994-2012 0.51 M-v 3Eh MPCADO     8803          1994 UG            20121021
J94U00S 21.0   0.15 K14C9 174.57021  121.66751  223.30993    8.50265  0.5701813  0.21825497   2.7320793  6 MPO147126    18   1   13 days 0.32 M-v 3Eh MPCW       2804          1994 US            19941111
J94V08H 27.7   0.15 K14C9 275.59566  314.06603   38.31473    3.34558  0.4392550  0.47640148   1.6236309  5 MPO242994     5   1    0 days 0.56 M-v 3Eh MPCW       2803          1994 VH8           19941101
J94W12R 22.0   0.15 K14C9 281.08254  205.94390   62.80027    6.82724  0.3967495  1.49650016   0.7569808  8 MPO 57659    17   1   33 days 0.61 M-v 3Eh MPCW       A802          1994 WR12          19941231
J94X00D 19.1   0.15 K14C9 215.29474  249.31011   96.23644    4.31151  0.7337311  0.27417541   2.3466611  0 MPO311246   289   3 1994-2013 0.37 M-v 3Eh MPCALB     8803          1994 XD            20130119
J94X00G 18.6   0.15 K14C9 129.89679   46.52276  231.77938   11.46816  0.4986707  0.49651485   1.5794815  4 MPO248753    52   6 1994-2012 0.40 M-v 3Eh MPCALB     0803          1994 XG            20121212
J94X01L 20.9   0.15 K14C9 341.70576  356.55120  252.67690   28.16574  0.5261899  1.79364621   0.6708800  0 MPO217979   101   3 1994-2011 0.74 M-v 3Eh MPCALB     8802          1994 XL1           20111217
J94X01M 28.2   0.15 K14C9 260.29762   42.10467   76.68217    4.61612  0.5687330  0.33378129   2.0582339  3 MPO242994    10   1    0 days 0.72 M-v 3Eh MPCW       2803          1994 XM1           19941209
J95B02K 22.6   0.15 K14C9  51.24874  351.15321  130.72991   25.21388  0.5602601  0.25654783   2.4529601  7 MPO164144    32   1    7 days 0.69 M-v 3Eh MPCW       2804          1995 BK2           19950207
J95C00R 21.7   0.15 K14C9 284.36900  322.53736  342.62117    4.06499  0.8684621  1.14090722   0.9070596  0 MPO286576   227   2 1995-2014 0.78 M-v 3Eh MPCALB     8802          1995 CR            20140223
J95C00S 25.5   0.15 K14C9 147.46000  252.42481  135.45690    2.60140  0.7743789  0.36559225   1.9370377  8 MPO164144    11   1    3 days 0.59 M-v 3Eh MPCW       2803          1995 CS            19950207
J95D01V 23.0   0.15 K14C9 108.25264  284.96560  171.61268    3.50825  0.6496057  0.21306406   2.7762756  8 MPO164144    13   1    8 days 0.40 M-v 3Eh MPCW       2803          1995 DV1           19950305
J95D01W 21.2   0.15 K14C9 114.38303  327.01092  348.84737   15.06316  0.4370044  0.92910009   1.0401462  3 MPO285650    62   5 1995-2014 0.53 M-v 3Eh MPCALB     0803          1995 DW1           20140209
J95F00F 26.5   0.15 K14C9 218.61161  296.82570  171.97184    0.59468  0.7094525  0.27927646   2.3179985  7 MPC 28318    16   1    5 days 0.55 M-v 3Eh Williams   2803          1995 FF            19950402
J95F00G 23.0   0.15 K14C9 284.61464   36.92221  184.93736    1.96412  0.3732038  0.39182879   1.8495745  5 MPC 25735    21   1   56 days 0.44 M-v 38h Williams   2804          1995 FG            19950522
J95F00J 20.3   0.15 K14C9  50.40518  316.41601    4.69468   25.03387  0.2705003  0.87182046   1.0852206  3 MPO258303    89   3 1995-2013 0.62 M-v 3Eh MPCALB     0803          1995 FJ            20130320
J95F00O 20.8   0.15 K14C9   2.93360  272.54534  180.81845   11.23352  0.3644775  0.54282118   1.4883264  2 E2014-U10    39   2 1995-2014 0.37 M-v 3Eh MPCALB     0803          1995 FO            20141016
J95F00X 20.1   0.15 K14C9 283.19325   27.42640  188.42202   21.56588  0.5430130  0.29087775   2.2559478  1 MPO222812   204   2 1995-2012 0.70 M-v 3Eh MPCADO     0804          1995 FX            20120229
J95H00M 23.0   0.15 K14C9  19.51931  209.05533   45.30527    3.98882  0.2198811  0.55873008   1.4599389  4 MPC 26191    57   1   55 days 0.40 M-v 3Eh Williams   2804          1995 HM            19950620
J95L00A 24.0   0.15 K14C9 108.50749   17.61337  247.65781    8.70003  0.5211476  0.31925620   2.1201983  6 MPC 25434    49   1    7 days 0.97 M-c 08  Marsden    2804          1995 LA            19950608
J95L00G 18.7   0.15 K14C9 201.40227  160.10808  276.45783   43.56304  0.7907857  0.89735843   1.0645321  0 MPO264917   184   4 1995-2013 0.58 M-v 3Eh MPCALB     0803          1995 LG            20130521
J95N00A 23.2   0.15 K14C9 298.26726   34.03799  276.04284   12.76363  0.3914141  0.44981956   1.6869822  8 MPO164144     8   1    1 days 0.63 M-v 3Eh MPCW       2804          1995 NA            19950706
J95S00B 22.2   0.15 K14C9 327.94599  263.49880  351.99103   14.91240  0.0859175  0.64927582   1.3208390  7 MPO 57660    12   1   12 days 0.53 M-v 38h MPCW       2804          1995 SB            19950930
J95S01C 22.7   0.15 K14C9  83.67322  341.28092  357.91795    6.82398  0.4751546  0.31882155   2.1221249  6 MPO166082    15   1   23 days 0.49 M-v 3Eh MPCW       2804          1995 SC1           19951016
J95S01D 20.6   0.15 K14C9  46.29456  189.77309  178.40901    9.38850  0.5677465  0.21181529   2.7871767  0 MPO163598    60   2 1995-2009 0.48 M-v 38h MPCS       0804          1995 SD1           20091017
J95S04A 22.3   0.15 K14C9 316.86162  148.28046  187.63653    2.81950  0.5787435  0.24955043   2.4986025  5 MPO 15011    30   1   33 days 0.43 M-v 3Eh Williams   2804          1995 SA4           19951030
J95U00B 27.3   0.15 K14C9 227.47390  112.46596  204.10486    8.97971  0.4125252  0.59465192   1.4005356  7 MPO294786    24   1    8 days 0.80 M-v 3Eh MPCW       2803          1995 UB            19951026
J95U02C 21.4   0.15 K14C9  94.72063  271.06322   33.21375   25.67179  0.3016495  0.46982482   1.6387476  8 MPO166082    11   1    6 days 0.37 M-v 3Eh MPCW       2804          1995 UC2           19951027
J95Y01R 20.2   0.15 K14C9 172.59467  109.34093  107.12113    3.56535  0.8270991  0.44526790   1.6984592  2 MPO208164    30   3 1995-2009 0.46 M-v 3Eh MPCADO     8803          1995 YR1           20091009
J96A01P 24.7   0.15 K14C9  58.03473  324.14930  117.85832    5.46935  0.4939306  0.37225663   1.9138494  7 MPO166082    13   1   10 days 0.67 M-v 3Eh MPCW       2803          1996 AP1           19960124
J96A01W 19.4   0.15 K14C9  53.86180  229.04097  117.62220    4.72617  0.5174671  0.52169205   1.5282459  8 MPO166082    13   1   13 days 0.69 M-v 3Eh MPCW       A803          1996 AW1           19960127
J96A02E 20.3   0.15 K14C9 324.87354  305.89835  118.97283   37.36249  0.2567456  0.61626815   1.3675910  2 MPO221007   190   2 1996-2012 0.53 M-v 3Eh MPCADO     0804          1996 AE2           20120130
J96B00T 23.0   0.15 K14C9  49.75380  328.18509  296.90267   12.09768  0.8335460  0.74356254   1.2066770    MPC 26751    20   1   10 days 0.61 M-v 3Eh Marsden    2803          1996 BT            19960129
